COMMENT,ORIGINATOR,NORAD_CAT_ID,OBJECT_NAME,OBJECT_TYPE,CLASSIFICATION_TYPE,INTLDES,EPOCH,EPOCH_MICROSECONDS,MEAN_MOTION,ECCENTRICITY,INCLINATION,RA_OF_ASC_NODE,ARG_OF_PERICENTER,MEAN_ANOMALY,EPHEMERIS_TYPE,ELEMENT_SET_NO,REV_AT_EPOCH,BSTAR,MEAN_MOTION_DOT,MEAN_MOTION_DDOT,FILE,TLE_LINE0,TLE_LINE1,TLE_LINE2,OBJECT_ID,OBJECT_NUMBER,SEMIMAJOR_AXIS,PERIOD,APOGEE,PERIGEE,DECAYED
"GENERATED VIA SPACETRACK.ORG API","18 SPCS","55092","SPACEBEE-166","PAYLOAD","U","23001CM","2023-05-01 17:54:17","861184","15.18771797","0.0017986","97.4807","182.3335","161.9888","198.1988","0","999","1805","0.0007808","0.00016254","0","3898518","0 SPACEBEE-166","1 55092U 23001CM  23121.74604006  .00016254  00000-0  78080-3 0  9997","2 55092  97.4807 182.3335 0017986 161.9888 198.1988 15.18771797 18056","2023-001CM","55092","6887.688","94.813","521.942","497.165","0"
"GENERATED VIA SPACETRACK.ORG API","18 SPCS","55092","SPACEBEE-166","PAYLOAD","U","23001CM","2023-05-01 22:38:55","136544","15.18779515","0.0017986","97.4808","182.5286","161.3664","198.8233","0","999","1808","0.00082199","0.0001712","0","3898419","0 SPACEBEE-166","1 55092U 23001CM  23121.94369371  .00017120  00000-0  82199-3 0  9991","2 55092  97.4808 182.5286 0017986 161.3664 198.8233 15.18779515 18089","2023-001CM","55092","6887.665","94.813","521.918","497.142","0"
"GENERATED VIA SPACETRACK.ORG API","18 SPCS","55092","SPACEBEE-166","PAYLOAD","U","23001CM","2023-05-02 09:43:01","752960","15.18799556","0.0018016","97.4806","182.9852","160.0341","200.1602","0","999","1815","0.00096112","0.0002005","0","3899068","0 SPACEBEE-166","1 55092U 23001CM  23122.40488140  .00020050  00000-0  96112-3 0  9995","2 55092  97.4806 182.9852 0018016 160.0341 200.1602 15.18799556 18155","2023-001CM","55092","6887.604","94.812","521.878","497.061","0"
"GENERATED VIA SPACETRACK.ORG API","18 SPCS","55092","SPACEBEE-166","PAYLOAD","U","23001CM","2023-05-02 17:37:23","382624","15.188112","0.0018055","97.4804","183.3112","159.0338","201.164","0","999","1820","0.00093695","0.00019549","0","3899277","0 SPACEBEE-166","1 55092U 23001CM  23122.73429841  .00019549  00000-0  93695-3 0  9998","2 55092  97.4804 183.3112 0018055 159.0338 201.1640 15.18811200 18204","2023-001CM","55092","6887.569","94.811","521.870","496.999","0"
"GENERATED VIA SPACETRACK.ORG API","18 SPCS","55092","SPACEBEE-166","PAYLOAD","U","23001CM","2023-05-03 03:06:37","18368","15.18826174","0.0018085","97.4802","183.7025","157.7124","202.49","0","999","1826","0.00092971","0.00019406","0","3899441","0 SPACEBEE-166","1 55092U 23001CM  23123.12959512  .00019406  00000-0  92971-3 0  9993","2 55092  97.4802 183.7025 0018085 157.7124 202.4900 15.18826174 18265","2023-001CM","55092","6887.524","94.810","521.845","496.933","0"
"GENERATED VIA SPACETRACK.ORG API","18 SPCS","55092","SPACEBEE-166","PAYLOAD","U","23001CM","2023-05-03 03:06:37","18368","15.18826174","0.0018085","97.4802","183.7025","157.7124","202.49","0","999","1826","0.00092971","0.00019406","0","3899966","0 SPACEBEE-166","1 55092U 23001CM  23123.12959512  .00019406  00000-0  92971-3 0  9993","2 55092  97.4802 183.7025 0018085 157.7124 202.4900 15.18826174 18265","2023-001CM","55092","6887.524","94.810","521.845","496.933","0"
"GENERATED VIA SPACETRACK.ORG API","18 SPCS","55092","SPACEBEE-166","PAYLOAD","U","23001CM","2023-05-03 17:20:26","888352","15.18845464","0.0018092","97.4801","184.2893","155.817","204.3917","0","999","1835","0.00084237","0.00017582","0","3900281","0 SPACEBEE-166","1 55092U 23001CM  23123.72253343  .00017582  00000-0  84237-3 0  9997","2 55092  97.4801 184.2893 0018092 155.8170 204.3917 15.18845464 18353","2023-001CM","55092","6887.466","94.809","521.792","496.870","0"
"GENERATED VIA SPACETRACK.ORG API","18 SPCS","55092","SPACEBEE-166","PAYLOAD","U","23001CM","2023-05-04 02:49:39","651456","15.1886228","0.0018117","97.4801","184.6805","154.6683","205.5443","0","999","1841","0.00089456","0.00018688","0","3900892","0 SPACEBEE-166","1 55092U 23001CM  23124.11782004  .00018688  00000-0  89456-3 0  9998","2 55092  97.4801 184.6805 0018117 154.6683 205.5443 15.18862280 18413","2023-001CM","55092","6887.415","94.808","521.758","496.802","0"
"GENERATED VIA SPACETRACK.ORG API","18 SPCS","55092","SPACEBEE-166","PAYLOAD","U","23001CM","2023-05-04 17:03:28","175328","15.18887334","0.0018124","97.48","185.2676","152.5959","207.6236","0","999","1850","0.00095919","0.00020061","0","3901071","0 SPACEBEE-166","1 55092U 23001CM  23124.71074277  .00020061  00000-0  95919-3 0  9999","2 55092  97.4800 185.2676 0018124 152.5959 207.6236 15.18887334 18506","2023-001CM","55092","6887.339","94.806","521.687","496.722","0"
"GENERATED VIA SPACETRACK.ORG API","18 SPCS","55092","SPACEBEE-166","PAYLOAD","U","23001CM","2023-05-04 17:03:28","175328","15.18887334","0.0018124","97.48","185.2676","152.5959","207.6236","0","999","1850","0.00095919","0.00020061","0","3901186","0 SPACEBEE-166","1 55092U 23001CM  23124.71074277  .00020061  00000-0  95919-3 0  9999","2 55092  97.4800 185.2676 0018124 152.5959 207.6236 15.18887334 18506","2023-001CM","55092","6887.339","94.806","521.687","496.722","0"
"GENERATED VIA SPACETRACK.ORG API","18 SPCS","55092","SPACEBEE-166","PAYLOAD","U","23001CM","2023-05-05 18:21:19","114848","15.18929565","0.0018061","97.4799","186.3106","148.9451","211.2855","0","999","1866","0.00094593","0.00019806","0","3901993","0 SPACEBEE-166","1 55092U 23001CM  23125.76480457  .00019806  00000-0  94593-3 0  9998","2 55092  97.4799 186.3106 0018061 148.9451 211.2855 15.18929565 18667","2023-001CM","55092","6887.211","94.804","521.515","496.637","0"
"GENERATED VIA SPACETRACK.ORG API","18 SPCS","55092","SPACEBEE-166","PAYLOAD","U","23001CM","2023-05-05 21:31:02","803872","15.18934821","0.0018104","97.4799","186.441","148.6155","211.6163","0","999","1868","0.00096043","0.00020115","0","3901890","0 SPACEBEE-166","1 55092U 23001CM  23125.89656023  .00020115  00000-0  96043-3 0  9993","2 55092  97.4799 186.4410 0018104 148.6155 211.6163 15.18934821 18681","2023-001CM","55092","6887.196","94.803","521.529","496.592","0"
"GENERATED VIA SPACETRACK.ORG API","18 SPCS","55092","SPACEBEE-166","PAYLOAD","U","23001CM","2023-05-06 02:15:38","281248","15.18943032","0.0018124","97.48","186.6366","147.862","212.3723","0","999","1871","0.00097222","0.00020368","0","3902298","0 SPACEBEE-166","1 55092U 23001CM  23126.09419307  .00020368  00000-0  97222-3 0  9998","2 55092  97.4800 186.6366 0018124 147.8620 212.3723 15.18943032 18714","2023-001CM","55092","6887.171","94.803","521.518","496.553","0"
"GENERATED VIA SPACETRACK.ORG API","18 SPCS","55092","SPACEBEE-166","PAYLOAD","U","23001CM","2023-05-07 01:58:34","57632","15.18991147","0.0018183","97.4791","187.6154","144.6482","215.5961","0","999","1886","0.0012324","0.00025893","0","3902645","0 SPACEBEE-166","1 55092U 23001CM  23127.08233863  .00025893  00000-0  12324-2 0  9996","2 55092  97.4791 187.6154 0018183 144.6482 215.5961 15.18991147 18860","2023-001CM","55092","6887.025","94.800","521.413","496.368","0"
"GENERATED VIA SPACETRACK.ORG API","18 SPCS","55092","SPACEBEE-166","PAYLOAD","U","23001CM","2023-05-07 09:52:52","80960","15.19002138","0.001824","97.4783","187.9415","143.7896","216.4577","0","999","1891","0.00097916","0.00020551","0","3903215","0 SPACEBEE-166","1 55092U 23001CM  23127.41171390  .00020551  00000-0  97916-3 0  9996","2 55092  97.4783 187.9415 0018240 143.7896 216.4577 15.19002138 18910","2023-001CM","55092","6886.992","94.799","521.419","496.295","0"
"GENERATED VIA SPACETRACK.ORG API","18 SPCS","55092","SPACEBEE-166","PAYLOAD","U","23001CM","2023-05-07 17:47:09","886560","15.19016101","0.00182","97.4788","188.2674","142.8098","217.4401","0","999","1896","0.0010389","0.00021821","0","3903413","0 SPACEBEE-166","1 55092U 23001CM  23127.74108665  .00021821  00000-0  10389-2 0  9996","2 55092  97.4788 188.2674 0018200 142.8098 217.4401 15.19016101 18963","2023-001CM","55092","6886.950","94.798","521.349","496.281","0"
"GENERATED VIA SPACETRACK.ORG API","18 SPCS","55092","SPACEBEE-166","PAYLOAD","U","23001CM","2023-05-08 03:16:18","899904","15.19034238","0.0018177","97.4787","188.6591","141.5712","218.682","0","999","1902","0.0012217","0.00025699","0","3903653","0 SPACEBEE-166","1 55092U 23001CM  23128.13632986  .00025699  00000-0  12217-2 0  9997","2 55092  97.4787 188.6591 0018177 141.5712 218.6820 15.19034238 19023","2023-001CM","55092","6886.895","94.797","521.278","496.242","0"
"GENERATED VIA SPACETRACK.ORG API","18 SPCS","55092","SPACEBEE-166","PAYLOAD","U","23001CM","2023-05-08 19:04:53","21568","15.19062161","0.0018185","97.4785","189.3112","139.5569","220.7021","0","999","1912","0.0011828","0.00024896","0","3904305","0 SPACEBEE-166","1 55092U 23001CM  23128.79505812  .00024896  00000-0  11828-2 0  9991","2 55092  97.4785 189.3112 0018185 139.5569 220.7021 15.19062161 19128","2023-001CM","55092","6886.811","94.795","521.199","496.152","0"
"GENERATED VIA SPACETRACK.ORG API","18 SPCS","55092","SPACEBEE-166","PAYLOAD","U","23001CM","2023-05-09 09:18:34","718976","15.19092126","0.0018091","97.4789","189.8985","137.6575","222.606","0","999","1921","0.0012715","0.00026797","0","3904553","0 SPACEBEE-166","1 55092U 23001CM  23129.38790184  .00026797  00000-0  12715-2 0  9993","2 55092  97.4789 189.8985 0018091 137.6575 222.6060 15.19092126 19215","2023-001CM","55092","6886.720","94.793","521.044","496.126","0"
"GENERATED VIA SPACETRACK.ORG API","18 SPCS","55092","SPACEBEE-166","PAYLOAD","U","23001CM","2023-05-10 02:41:57","813216","15.19124876","0.0018202","97.4785","190.6157","135.2689","225.0017","0","999","1932","0.0012195","0.00025721","0","3904555","0 SPACEBEE-166","1 55092U 23001CM  23130.11247469  .00025721  00000-0  12195-2 0  9997","2 55092  97.4785 190.6157 0018202 135.2689 225.0017 15.19124876 19325","2023-001CM","55092","6886.621","94.791","521.021","495.951","0"
